<?xml version="1.0" encoding="UTF-8" standalone="no" ?><gpx xmlns="http://www.topografix.com/GPX/1/1" xmlns:gpxx="http://www.garmin.com/xmlschemas/GpxExtensions/v3" xmlns:wptx1="http://www.garmin.com/xmlschemas/WaypointExtension/v1" xmlns:gpxtpx="http://www.garmin.com/xmlschemas/TrackPointExtension/v1" creator="GPSMAP 66sr" version="1.1" xmlns:xsi="http://www.w3.org/2001/XMLSchema-instance" xsi:schemaLocation="http://www.topografix.com/GPX/1/1 http://www.topografix.com/GPX/1/1/gpx.xsd http://www.garmin.com/xmlschemas/GpxExtensions/v3 http://www8.garmin.com/xmlschemas/GpxExtensionsv3.xsd http://www.garmin.com/xmlschemas/TrackStatsExtension/v1 http://www8.garmin.com/xmlschemas/TrackStatsExtension.xsd http://www.garmin.com/xmlschemas/WaypointExtension/v1 http://www8.garmin.com/xmlschemas/WaypointExtensionv1.xsd http://www.garmin.com/xmlschemas/TrackPointExtension/v1 http://www.garmin.com/xmlschemas/TrackPointExtensionv1.xsd"><metadata><link href="http://www.garmin.com"><text>Garmin International</text></link><time>2023-08-01T14:27:43Z</time></metadata><wpt lat="43.068056" lon="-70.708005"><ele>2.509956</ele><time>2023-08-01T14:27:43Z</time><name>Aquafort</name><sym>Flag, Blue</sym></wpt><wpt lat="43.067833" lon="-70.707187"><ele>2.202043</ele><time>2023-08-01T14:43:07Z</time><name>A1</name><sym>Flag, Blue</sym></wpt><wpt lat="43.067691" lon="-70.707461"><ele>1.614210</ele><time>2023-08-01T14:47:16Z</time><name>A2</name><sym>Flag, Blue</sym></wpt><wpt lat="43.067460" lon="-70.707613"><time>2023-08-01T14:53:47Z</time><name>A3</name><sym>Flag, Blue</sym></wpt><wpt lat="43.067460" lon="-70.707613"><time>2023-08-01T14:57:09Z</time><name>A4</name><sym>Flag, Blue</sym></wpt><wpt lat="43.065852" lon="-70.711106"><time>2023-08-01T14:59:32Z</time><name>A5</name><sym>Flag, Blue</sym></wpt><wpt lat="43.065808" lon="-70.711148"><time>2023-08-01T15:03:38Z</time><name>A6</name><sym>Flag, Blue</sym></wpt><wpt lat="43.065808" lon="-70.711148"><time>2023-08-01T15:06:26Z</time><name>A7</name><sym>Flag, Blue</sym></wpt><wpt lat="43.065808" lon="-70.711148"><time>2023-08-01T15:09:06Z</time><name>A8</name><sym>Flag, Blue</sym></wpt><wpt lat="43.065808" lon="-70.711148"><time>2023-08-01T15:12:22Z</time><name>A9</name><sym>Flag, Blue</sym></wpt><wpt lat="43.068369" lon="-70.708759"><ele>1.474249</ele><time>2023-08-01T15:17:52Z</time><name>0016</name><sym>Flag, Blue</sym></wpt><wpt lat="43.068370" lon="-70.708760"><ele>1.222321</ele><time>2023-08-01T15:17:55Z</time><name>A10</name><sym>Flag, Blue</sym></wpt><wpt lat="43.068447" lon="-70.708330"><ele>1.082360</ele><time>2023-08-01T15:20:05Z</time><name>A11</name><sym>Flag, Blue</sym></wpt><wpt lat="43.068582" lon="-70.707996"><ele>1.978107</ele><time>2023-08-01T15:22:37Z</time><name>A12</name><sym>Flag, Blue</sym></wpt><wpt lat="43.068701" lon="-70.707673"><ele>1.371612</ele><time>2023-08-01T15:26:50Z</time><name>A13</name><sym>Flag, Blue</sym></wpt><wpt lat="43.068357" lon="-70.707560"><ele>0.802440</ele><time>2023-08-01T15:31:03Z</time><name>A14</name><sym>Flag, Blue</sym></wpt><wpt lat="43.068222" lon="-70.707410"><ele>-1.455588</ele><time>2023-08-01T15:33:47Z</time><name>A15</name><sym>Flag, Blue</sym></wpt><wpt lat="43.068009" lon="-70.707302"><ele>2.500625</ele><time>2023-08-01T15:42:39Z</time><name>0017</name><sym>Flag, Blue</sym></wpt><wpt lat="43.068016" lon="-70.707300"><ele>1.670194</ele><time>2023-08-01T15:42:44Z</time><name>A16</name><sym>Flag, Blue</sym></wpt><wpt lat="43.068105" lon="-70.707768"><ele>2.332673</ele><time>2023-08-01T15:49:18Z</time><name>A17</name><sym>Flag, Blue</sym></wpt><wpt lat="43.068233" lon="-70.708214"><ele>1.707517</ele><time>2023-08-01T15:53:03Z</time><name>A18</name><sym>Flag, Blue</sym></wpt><wpt lat="43.067914" lon="-70.708405"><ele>1.791493</ele><time>2023-08-01T15:56:27Z</time><name>A19</name><sym>Flag, Blue</sym></wpt><wpt lat="43.067743" lon="-70.707993"><ele>2.351334</ele><time>2023-08-01T16:00:26Z</time><name>A20</name><sym>Flag, Blue</sym></wpt><wpt lat="43.068003" lon="-70.708059"><ele>2.491295</ele><time>2023-08-01T16:06:07Z</time><name>A20</name><sym>Flag, Blue</sym></wpt><wpt lat="43.068000" lon="-70.708061"><ele>2.202043</ele><time>2023-08-01T16:06:26Z</time><name>A21</name><sym>Flag, Blue</sym></wpt><wpt lat="43.068053" lon="-70.707904"><ele>2.202043</ele><time>2023-08-01T16:09:22Z</time><name>A22</name><sym>Flag, Blue</sym></wpt><wpt lat="43.068111" lon="-70.707928"><ele>1.707517</ele><time>2023-08-01T16:13:14Z</time><name>A23</name><sym>Flag, Blue</sym></wpt><wpt lat="43.068062" lon="-70.708108"><ele>2.892514</ele><time>2023-08-01T16:15:31Z</time><name>A24</name><sym>Flag, Blue</sym></wpt></gpx>